NORAD_CAT_ID,OBJECT_NAME,OBJECT_TYPE,EPOCH,MEAN_MOTION,ECCENTRICITY,INCLINATION,RA_OF_ASC_NODE,ARG_OF_PERICENTER,MEAN_ANOMALY,BSTAR,MEAN_MOTION_DOT,MEAN_MOTION_DDOT,TLE_LINE0,TLE_LINE1,TLE_LINE2,SEMIMAJOR_AXIS,PERIOD,APOGEE,PERIGEE,DECAYED
56799.0,STARLINK-5953,PAYLOAD,2024-05-05 14:49:31,14.98337975,0.0003076,70.0,241.3824,268.3498,91.7309,0.00011558,1.287e-05,0.0,0 STARLINK-5953,1 56799U 23078AJ  24126.61772717  .00001287  00000-0  11558-3 0  9990,2 56799  70.0000 241.3824 0003076 268.3498  91.7309 14.98337975 51860,6950.168,96.106,574.171,569.895,0.0
56799.0,STARLINK-5953,PAYLOAD,2024-05-05 18:01:47,14.98342426,0.0003048,70.0,241.0458,268.564,91.517,0.00013604,1.531e-05,0.0,0 STARLINK-5953,1 56799U 23078AJ  24126.75124316  .00001531  00000-0  13604-3 0  9997,2 56799  70.0000 241.0458 0003048 268.5640  91.5170 14.98342426 51883,6950.154,96.106,574.138,569.901,0.0
56799.0,STARLINK-5953,PAYLOAD,2024-05-06 11:39:16,14.98332621,0.0002997,70.0003,239.1944,269.6077,90.4738,0.00019416,2.225e-05,0.0,0 STARLINK-5953,1 56799U 23078AJ  24127.48560844  .00002225  00000-0  19416-3 0  9996,2 56799  70.0003 239.1944 0002997 269.6077  90.4738 14.98332621 52258,6950.185,96.107,574.133,569.967,0.0
56799.0,STARLINK-5953,PAYLOAD,2024-05-06 14:51:32,14.98336087,0.0002959,70.0003,238.8582,268.0925,91.9895,0.00021888,2.52e-05,0.0,0 STARLINK-5953,1 56799U 23078AJ  24127.61912571  .00002520  00000-0  21888-3 0  9993,2 56799  70.0003 238.8582 0002959 268.0925  91.9895 14.98336087 52019,6950.174,96.107,574.096,569.983,0.0
56799.0,STARLINK-5953,PAYLOAD,2024-05-06 16:27:40,14.98337914,0.0002946,70.0004,238.6901,267.7773,92.3049,0.00024016,2.774e-05,0.0,0 STARLINK-5953,1 56799U 23078AJ  24127.68588425  .00002774  00000-0  24016-3 0  9994,2 56799  70.0004 238.6901 0002946 267.7773  92.3049 14.98337914 52023,6950.168,96.106,574.081,569.986,0.0
56799.0,STARLINK-5953,PAYLOAD,2024-05-07 13:17:25,14.98334616,0.0002747,70.001,236.5023,268.2842,91.8003,-2.7406e-06,-1.26e-06,0.0,0 STARLINK-5953,1 56799U 23078AJ  24128.55376761 -.00000126  00000-0 -27406-5 0  9998,2 56799  70.0010 236.5023 0002747 268.2842  91.8003 14.98334616 52417,6950.179,96.107,573.953,570.134,0.0
56799.0,STARLINK-5953,PAYLOAD,2024-05-07 14:53:33,14.9833449,0.0002751,70.001,236.334,268.369,91.7154,-6.4094e-06,-1.69e-06,0.0,0 STARLINK-5953,1 56799U 23078AJ  24128.62052744 -.00000169  00000-0 -64094-5 0  9999,2 56799  70.0010 236.3340 0002751 268.3690  91.7154 14.98334490 52162,6950.179,96.107,573.956,570.132,0.0
56799.0,STARLINK-5953,PAYLOAD,2024-05-07 16:29:41,14.98334663,0.0002749,70.001,236.1658,268.5517,91.5327,-6.0671e-06,-1.65e-06,0.0,0 STARLINK-5953,1 56799U 23078AJ  24128.68728701 -.00000165  00000-0 -60671-5 0  9991,2 56799  70.0010 236.1658 0002749 268.5517  91.5327 14.98334663 52172,6950.178,96.107,573.954,570.133,0.0
56799.0,STARLINK-5953,PAYLOAD,2024-05-08 13:19:26,14.98336544,0.0002852,70.0005,233.9773,264.9595,95.1238,2.7711e-05,2.38e-06,0.0,0 STARLINK-5953,1 56799U 23078AJ  24129.55516343  .00000238  00000-0  27711-4 0  9991,2 56799  70.0005 233.9773 0002852 264.9595  95.1238 14.98336544 52564,6950.173,96.107,574.02,570.055,0.0
56799.0,STARLINK-5953,PAYLOAD,2024-05-08 16:31:42,14.98335025,0.0002883,70.0005,233.6405,264.9821,95.1009,1.3193e-05,6.4e-07,0.0,0 STARLINK-5953,1 56799U 23078AJ  24129.68868444  .00000064  00000-0  13193-4 0  9993,2 56799  70.0005 233.6405 0002883 264.9821  95.1009 14.98335025 52322,6950.177,96.107,574.046,570.039,0.0
56799.0,STARLINK-5953,PAYLOAD,2024-05-09 13:21:27,14.98331131,0.000301,69.9999,231.4502,265.7161,94.3654,9.5323e-05,1.045e-05,0.0,0 STARLINK-5953,1 56799U 23078AJ  24130.55656546  .00001045  00000-0  95323-4 0  9994,2 56799  69.9999 231.4502 0003010 265.7161  94.3654 14.98331131 52718,6950.189,96.107,574.146,569.962,0.0
56799.0,STARLINK-5953,PAYLOAD,2024-05-09 16:33:43,14.98333731,0.0002988,70.0005,231.1167,269.5749,90.5067,0.00011484,1.278e-05,0.0,0 STARLINK-5953,1 56799U 23078AJ  24130.69008370  .00001278  00000-0  11484-3 0  9998,2 56799  70.0005 231.1167 0002988 269.5749  90.5067 14.98333731 52477,6950.181,96.107,574.123,569.97,0.0
56799.0,STARLINK-5953,PAYLOAD,2024-05-10 13:23:27,14.98343061,0.0002885,70.0011,228.9305,261.691,98.3922,0.00019882,2.281e-05,0.0,0 STARLINK-5953,1 56799U 23078AJ  24131.55795564  .00002281  00000-0  19882-3 0  9997,2 56799  70.0011 228.9305 0002885 261.6910  98.3922 14.98343061 52867,6950.153,96.106,574.023,570.012,0.0
56799.0,STARLINK-5953,PAYLOAD,2024-05-10 16:35:42,14.98350189,0.0002765,70.0012,228.5906,265.8682,94.2161,0.000311,3.622e-05,0.0,0 STARLINK-5953,1 56799U 23078AJ  24131.69146981  .00003622  00000-0  31100-3 0  9992,2 56799  70.0012 228.5906 0002765 265.8682  94.2161 14.98350189 52623,6950.13,96.106,573.917,570.074,0.0
56799.0,STARLINK-5953,PAYLOAD,2024-05-11 13:25:25,14.98384117,0.0002929,70.0018,226.4032,264.5061,95.5764,0.00092336,0.00010957,0.0,0 STARLINK-5953,1 56799U 23078AJ  24132.55932778  .00010957  00000-0  92336-3 0  9992,2 56799  70.0018 226.4032 0002929 264.5061  95.5764 14.98384117 53010,6950.026,96.104,573.926,569.855,0.0
56799.0,STARLINK-5953,PAYLOAD,2024-05-11 15:01:34,14.98387053,0.0002923,70.002,226.2349,264.414,95.6685,0.0011254,0.00013381,0.0,0 STARLINK-5953,1 56799U 23078AJ  24132.62608900  .00013381  00000-0  11254-2 0  9990,2 56799  70.0020 226.2349 0002923 264.4140  95.6685 14.98387053 52769,6950.016,96.103,573.913,569.85,0.0
56799.0,STARLINK-5953,PAYLOAD,2024-05-12 05:26:50,14.98290256,0.0002846,70.0021,224.7183,267.5917,92.4916,-0.0012034,-0.00014407,0.0,0 STARLINK-5953,1 56799U 23078AJ  24133.22697100 -.00014407  00000-0 -12034-2 0  9996,2 56799  70.0021 224.7183 0002846 267.5917  92.4916 14.98290256 53119,6950.316,96.11,574.159,570.203,0.0
56799.0,STARLINK-5953,PAYLOAD,2024-05-12 08:38:17,14.99633596,0.0013826,70.0023,224.3795,291.9978,67.9713,0.032488,0.00426627,0.0,0 STARLINK-5953,1 56799U 23078AJ  24133.35993051  .00426627  00000-0  32488-1 0  9997,2 56799  70.0023 224.3795 0013826 291.9978  67.9713 14.99633596 53137,6946.165,96.023,577.633,558.426,0.0
56799.0,STARLINK-5953,PAYLOAD,2024-05-12 22:00:00,14.9835192,0.0002916,70.0006,222.9801,270.9867,208.0808,-0.0027746,-0.00033062,0.0,0 STARLINK-5953,1 56799U 23078AJ  24133.91667824 -.00033062  00000-0 -27746-2 0  9996,2 56799  70.0006 222.9801 0002916 270.9867 208.0808 14.98351920 53211,6950.125,96.106,574.017,569.963,0.0
56799.0,STARLINK-5953,PAYLOAD,2024-05-13 05:28:52,14.98302931,0.0004255,70.0,222.1918,276.7393,83.3281,-0.00037218,-4.528e-05,0.0,0 STARLINK-5953,1 56799U 23078AJ  24134.22838065 -.00004528  00000-0 -37218-3 0  9999,2 56799  70.0000 222.1918 0004255 276.7393  83.3281 14.98302931 53264,6950.277,96.109,575.099,569.184,0.0
56799.0,STARLINK-5953,PAYLOAD,2024-05-13 11:53:24,14.98316282,0.0003409,70.0013,221.5214,274.3692,85.7078,0.00044233,5.187e-05,0.0,0 STARLINK-5953,1 56799U 23078AJ  24134.49542722  .00005187  00000-0  44233-3 0  9995,2 56799  70.0013 221.5214 0003409 274.3692  85.7078 14.98316282 53305,6950.235,96.108,574.47,569.731,0.0
56799.0,STARLINK-5953,PAYLOAD,2024-05-13 11:53:29,14.98089773,0.000399,70.0018,221.5196,284.3156,75.7559,-0.006074,-0.00071396,0.0,0 STARLINK-5953,1 56799U 23078AJ  24134.49547562 -.00071396  00000-0 -60740-2 0  9999,2 56799  70.0018 221.5196 0003990 284.3156  75.7559 14.98089773 53305,6950.936,96.122,575.574,570.027,0.0
56799.0,STARLINK-5953,PAYLOAD,2024-05-14 11:55:26,14.9836466,0.0003136,70.0003,218.9956,268.446,91.6339,0.0018201,0.00021711,0.0,0 STARLINK-5953,1 56799U 23078AJ  24135.49683357  .00021711  00000-0  18201-2 0  9992,2 56799  70.0003 218.9956 0003136 268.4460  91.6339 14.98364660 53456,6950.086,96.105,574.13,569.771,0.0
56799.0,STARLINK-5953,PAYLOAD,2024-05-15 13:33:33,14.98365866,0.0002779,70.0015,216.302,265.5132,94.5709,0.00026433,3.065e-05,0.0,0 STARLINK-5953,1 56799U 23078AJ  24136.56496601  .00003065  00000-0  26433-3 0  9994,2 56799  70.0015 216.3020 0002779 265.5132  94.5709 14.98365866 53619,6950.082,96.105,573.878,570.016,0.0
56799.0,STARLINK-5953,PAYLOAD,2024-05-15 15:09:40,14.98369921,0.0002729,70.0017,216.1336,263.8836,96.2012,0.00034569,4.038e-05,0.0,0 STARLINK-5953,1 56799U 23078AJ  24136.63172308  .00004038  00000-0  34569-3 0  9997,2 56799  70.0017 216.1336 0002729 263.8836  96.2012 14.98369921 53360,6950.069,96.104,573.831,570.038,0.0
56799.0,STARLINK-5953,PAYLOAD,2024-05-16 05:34:53,14.98354123,0.0002266,70.0014,214.6182,268.8029,91.287,0.00018097,2.068e-05,0.0,0 STARLINK-5953,1 56799U 23078AJ  24137.23256005  .00002068  00000-0  18097-3 0  9990,2 56799  70.0014 214.6182 0002266 268.8029  91.2870 14.98354123 53718,6950.118,96.105,573.558,570.408,0.0
56799.0,STARLINK-5953,PAYLOAD,2024-05-16 11:59:25,14.98351476,0.0002829,70.0014,213.9466,271.6073,88.4762,-0.0001074,-1.375e-05,0.0,0 STARLINK-5953,1 56799U 23078AJ  24137.49959740 -.00001375  00000-0 -10740-3 0  9993,2 56799  70.0014 213.9466 0002829 271.6073  88.4762 14.98351476 53492,6950.126,96.106,573.958,570.025,0.0
56799.0,STARLINK-5953,PAYLOAD,2024-05-17 05:36:53,14.98344661,0.000284,70.0013,212.0952,272.3235,87.7599,0.00012866,1.443e-05,0.0,0 STARLINK-5953,1 56799U 23078AJ  24138.23395526  .00001443  00000-0  12866-3 0  9997,2 56799  70.0013 212.0952 0002840 272.3235  87.7599 14.98344661 53861,6950.148,96.106,573.986,570.039,0.0
56799.0,STARLINK-5953,PAYLOAD,2024-05-17 12:01:25,14.98341628,0.0002801,70.0019,211.4237,266.1027,93.9811,0.00014541,1.643e-05,0.0,0 STARLINK-5953,1 56799U 23078AJ  24138.50099421  .00001643  00000-0  14541-3 0  9996,2 56799  70.0019 211.4237 0002801 266.1027  93.9811 14.98341628 53645,6950.157,96.106,573.969,570.075,0.0
56799.0,STARLINK-5953,PAYLOAD,2024-05-17 21:38:14,14.98343456,0.0003453,70.0001,210.4105,277.5749,82.5018,0.00017393,1.984e-05,0.0,0 STARLINK-5953,1 56799U 23078AJ  24138.90155139  .00001984  00000-0  17393-3 0  9995,2 56799  70.0001 210.4105 0003453 277.5749  82.5018 14.98343456 53701,6950.151,96.106,574.416,569.616,0.0
